[{"OBJECT_NAME":"CINEMA","OBJECT_ID":"2012-048G","EPOCH":"2026-03-09T23:21:38.910528","MEAN_MOTION":15.41758997,"ECCENTRICITY":0.00644529,"INCLINATION":64.645,"RA_OF_ASC_NODE":61.8658,"ARG_OF_PERICENTER":204.5071,"MEAN_ANOMALY":155.2999,"EPHEMERIS_TYPE":0,"CLASSIFICATION_TYPE":"U","NORAD_CAT_ID":38764,"ELEMENT_SET_NO":999,"REV_AT_EPOCH":10191,"BSTAR":0.00076174658,"MEAN_MOTION_DOT":0.0003483,"MEAN_MOTION_DDOT":0},{"OBJECT_NAME":"STARLINK-32556","OBJECT_ID":"2024-202P","EPOCH":"2026-03-09T11:05:13.809696","MEAN_MOTION":15.27573886,"ECCENTRICITY":0.000132,"INCLINATION":43.0009,"RA_OF_ASC_NODE":239.2027,"ARG_OF_PERICENTER":255.5118,"MEAN_ANOMALY":104.5587,"EPHEMERIS_TYPE":0,"CLASSIFICATION_TYPE":"U","NORAD_CAT_ID":61858,"ELEMENT_SET_NO":999,"REV_AT_EPOCH":7530,"BSTAR":-1.6253294e-5,"MEAN_MOTION_DOT":-7.09e-6,"MEAN_MOTION_DDOT":0}]
